*******************************************************************************
JPL/HORIZONS                      1P/Halley                2013-Jan-09 09:51:38
Rec #:900033 (+COV)   Soln.date: 2001-Aug-02_13:51:39   # obs: 7428 (1835-1994)
 
FK5/J2000.0 helio. ecliptic osc. elements (AU, DAYS, DEG, period=Julian yrs):  
 
  EPOCH=  2449400.5 != 1994-Feb-17.0000000 (CT)   Residual RMS= 1.1127         
    EC= .9671429084623043  QR= .5859781115169086  TP= 2446467.395317051        
    OM= 58.42008097656843  W= 111.3324851045177   IN= 162.2626905791606        
    A= 17.83414429255367   MA= 38.384264476437    ADIST= 35.08231047359043     
    PER= 75.31589068634101 N= .013086565          ANGMOM= .01846886            
    DAN= 1.77839           DDN= .8527             L= 306.1250585               
    B= 16.4859405                                 TP= 1986-Feb-05.8953171      
 
Physical & non-grav parameters (KM, SEC; A1,A2,A3=AU/d^2; DT=days):
    GM= n.a.               RAD= 5.5               A1= 2.696464D-10             
    A2= 1.554613D-10       A3= n.a.               DT= n.a.                     
    M1= 5.5                M2= 13.6               k1= 8.                       
    k2= 5.                 PHCOF= .030                                         
 
COMET comments 
1: soln ref.= JPL#J863/77, data arc: 1835-Aug-21 to 1994-Jan-11
2: k1=8.0, k2=5.0, phase coef.=0.03;
*******************************************************************************
 
 
*******************************************************************************
Ephemeris / WWW_USER Wed Jan  9 09:51:38 2013 Pasadena, USA      / Horizons    
*******************************************************************************
Target body name: 1P/Halley                       {source: JPL#J863/77}
Center body name: Earth (399)                     {source: DE405}
Center-site name: (user defined site below)
*******************************************************************************
Start time      : A.D. 2013-Jan-09 00:00:00.0000 UT      
Stop  time      : A.D. 2013-Feb-08 00:00:00.0000 UT      
Step-size       : 1 minutes
*******************************************************************************
Target pole/equ : No model available
Target radii    : 5.5 km                                                       
Center geodetic : 8.53330000,47.3667476,-0.000128 {E-lon(deg),Lat(deg),Alt(km)}
Center cylindric: 8.53330000,4327.78336,4669.4727 {E-lon(deg),Dxy(km),Dz(km)}
Center pole/equ : High-precision EOP model        {East-longitude +}
Center radii    : 6378.1 x 6378.1 x 6356.8 km     {Equator, meridian, pole}    
Target primary  : Sun                             {source: DE405}
Interfering body: MOON (Req= 1737.400) km         {source: DE405}
Deflecting body : Sun, EARTH                      {source: DE405}
Deflecting GMs  : 1.3271E+11, 3.9860E+05 km^3/s^2                              
Small perturbers: Ceres, Pallas, Vesta            {source: SB405-CPV-2}
Small body GMs  : 6.32E+01, 1.43E+01, 1.78E+01 km^3/s^2                        
Atmos refraction: YES (Earth refraction model)
RA format       : DEG
Time format     : CAL 
RTS-only print  : NO       
EOP file        : eop.130108.p130401                                           
EOP coverage    : DATA-BASED 1962-JAN-20 TO 2013-JAN-08. PREDICTS-> 2013-MAR-31
Units conversion: 1 AU= 149597870.691 km, c= 299792.458 km/s, 1 day= 86400.0 s 
Table cut-offs 1: Elevation (-90.0deg=NO ),Airmass (>38.000=NO), Daylight (NO )
Table cut-offs 2: Solar Elongation (  0.0,180.0=NO )                           
Table format    : Comma Separated Values (spreadsheet)
*******************************************************************************
Initial FK5/J2000.0 heliocentric ecliptic osculating elements (AU, DAYS, DEG):
  EPOCH=  2449400.5 != 1994-Feb-17.0000000 (CT)   Residual RMS= 1.1127         
    EC= .9671429084623043  QR= .5859781115169086  TP= 2446467.395317051        
    OM= 58.42008097656843  W= 111.3324851045177   IN= 162.2626905791606        
Comet physical & dynamic parameters (KM, SEC; A1,A2,A3=AU/d^2; DT=days):
    GM= n.a.               RAD= 5.5               A1= 2.696464D-10             
    A2= 1.554613D-10       A3= n.a.               DT= n.a.                     
    M1= 5.5                M2= 13.6               k1= 8.                       
    k2= 5.                 PHCOF= .030                                         
*********************************************************************************************
 Date__(UT)__HR:MN, , ,Azi_(r-appr), Elev_(r-appr),            delta,     deldot,   1-way_LT,
*********************************************************************************************
$$SOE
 2013-Jan-25 14:52,*, , 56.5017,-25.0942, 4.8443365472E+09, -0.9111704, 269.316123,
 2013-Jan-25 14:53,*, , 56.7311,-24.9524, 4.8443364925E+09, -0.9117199, 269.316120,
 2013-Jan-25 14:54,*, , 56.9599,-24.8102, 4.8443364378E+09, -0.9122649, 269.316117,
 2013-Jan-25 14:55,*, , 57.1881,-24.6677, 4.8443363830E+09, -0.9128053, 269.316114,
 2013-Jan-25 14:56,*, , 57.4158,-24.5248, 4.8443363282E+09, -0.9133411, 269.316111,
 2013-Jan-25 14:57,*, , 57.6430,-24.3815, 4.8443362734E+09, -0.9138723, 269.316108,
 2013-Jan-25 14:58,*, , 57.8696,-24.2379, 4.8443362186E+09, -0.9143989, 269.316105,
 2013-Jan-25 14:59,*,m, 58.0956,-24.0939, 4.8443361637E+09, -0.9149208, 269.316102,
 2013-Jan-25 15:00,*,m, 58.3211,-23.9496, 4.8443361088E+09, -0.9154381, 269.316098,
 2013-Jan-25 15:01,*,m, 58.5461,-23.8049, 4.8443360538E+09, -0.9159507, 269.316095,
 2013-Jan-25 15:02,*,m, 58.7706,-23.6599, 4.8443359989E+09, -0.9164586, 269.316092,
 2013-Jan-25 15:03,*,m, 58.9946,-23.5145, 4.8443359439E+09, -0.9169618, 269.316089,
 2013-Jan-25 15:04,*,m, 59.2180,-23.3688, 4.8443358888E+09, -0.9174602, 269.316086,
 2013-Jan-25 15:05,*,m, 59.4409,-23.2227, 4.8443358338E+09, -0.9179540, 269.316083,
 2013-Jan-25 15:06,*,m, 59.6633,-23.0763, 4.8443357787E+09, -0.9184429, 269.316080,
 2013-Jan-25 15:07,*,m, 59.8851,-22.9296, 4.8443357236E+09, -0.9189271, 269.316077,
 2013-Jan-25 15:08,*,m, 60.1065,-22.7825, 4.8443356684E+09, -0.9194065, 269.316074,
 2013-Jan-25 15:09,*,m, 60.3274,-22.6352, 4.8443356132E+09, -0.9198811, 269.316071,
 2013-Jan-25 15:10,*,m, 60.5477,-22.4875, 4.8443355580E+09, -0.9203509, 269.316068,
 2013-Jan-25 15:11,*,m, 60.7676,-22.3394, 4.8443355028E+09, -0.9208158, 269.316065,
 2013-Jan-25 15:12,*,m, 60.9870,-22.1911, 4.8443354475E+09, -0.9212759, 269.316062,
 2013-Jan-25 15:13,*,m, 61.2058,-22.0424, 4.8443353922E+09, -0.9217311, 269.316059,
 2013-Jan-25 15:14,*,m, 61.4242,-21.8935, 4.8443353369E+09, -0.9221814, 269.316056,
 2013-Jan-25 15:15,*,m, 61.6422,-21.7442, 4.8443352816E+09, -0.9226268, 269.316053,
 2013-Jan-25 15:16,*,m, 61.8596,-21.5946, 4.8443352262E+09, -0.9230673, 269.316049,
 2013-Jan-25 15:17,*,m, 62.0765,-21.4447, 4.8443351708E+09, -0.9235029, 269.316046,
 2013-Jan-25 15:18,*,m, 62.2930,-21.2945, 4.8443351154E+09, -0.9239335, 269.316043,
 2013-Jan-25 15:19,*,m, 62.5090,-21.1441, 4.8443350599E+09, -0.9243591, 269.316040,
 2013-Jan-25 15:20,*,m, 62.7246,-20.9933, 4.8443350045E+09, -0.9247798, 269.316037,
 2013-Jan-25 15:21,*,m, 62.9397,-20.8422, 4.8443349490E+09, -0.9251955, 269.316034,
 2013-Jan-25 15:22,*,m, 63.1543,-20.6908, 4.8443348934E+09, -0.9256062, 269.316031,
 2013-Jan-25 15:23,*,m, 63.3684,-20.5392, 4.8443348379E+09, -0.9260118, 269.316028,
 2013-Jan-25 15:24,*,m, 63.5822,-20.3873, 4.8443347823E+09, -0.9264124, 269.316025,
 2013-Jan-25 15:25,*,m, 63.7954,-20.2350, 4.8443347267E+09, -0.9268080, 269.316022,
 2013-Jan-25 15:26,*,m, 64.0083,-20.0825, 4.8443346711E+09, -0.9271985, 269.316019,
 2013-Jan-25 15:27,*,m, 64.2206,-19.9298, 4.8443346155E+09, -0.9275839, 269.316015,
 2013-Jan-25 15:28,*,m, 64.4326,-19.7767, 4.8443345598E+09, -0.9279642, 269.316012,
 2013-Jan-25 15:29,*,m, 64.6441,-19.6234, 4.8443345041E+09, -0.9283394, 269.316009,
 2013-Jan-25 15:30,*,m, 64.8552,-19.4698, 4.8443344484E+09, -0.9287095, 269.316006,
 2013-Jan-25 15:31,*,m, 65.0658,-19.3160, 4.8443343927E+09, -0.9290745, 269.316003,
 2013-Jan-25 15:32,*,m, 65.2761,-19.1619, 4.8443343369E+09, -0.9294343, 269.316000,
 2013-Jan-25 15:33,*,m, 65.4859,-19.0075, 4.8443342811E+09, -0.9297889, 269.315997,
 2013-Jan-25 15:34,*,m, 65.6953,-18.8529, 4.8443342253E+09, -0.9301384, 269.315994,
 2013-Jan-25 15:35,*,m, 65.9043,-18.6980, 4.8443341695E+09, -0.9304827, 269.315991,
 2013-Jan-25 15:36,*,m, 66.1128,-18.5428, 4.8443341137E+09, -0.9308217, 269.315988,
 2013-Jan-25 15:37,*,m, 66.3210,-18.3875, 4.8443340578E+09, -0.9311556, 269.315984,
 2013-Jan-25 15:38,*,m, 66.5288,-18.2318, 4.8443340019E+09, -0.9314842, 269.315981,
 2013-Jan-25 15:39,*,m, 66.7362,-18.0759, 4.8443339460E+09, -0.9318075, 269.315978,
 2013-Jan-25 15:40,*,m, 66.9431,-17.9198, 4.8443338901E+09, -0.9321257, 269.315975,
 2013-Jan-25 15:41,*,m, 67.1497,-17.7635, 4.8443338342E+09, -0.9324385, 269.315972,
 2013-Jan-25 15:42,*,m, 67.3559,-17.6069, 4.8443337782E+09, -0.9327460, 269.315969,
 2013-Jan-25 15:43,*,m, 67.5617,-17.4500, 4.8443337223E+09, -0.9330483, 269.315966,
 2013-Jan-25 15:44,*,m, 67.7672,-17.2929, 4.8443336663E+09, -0.9333452, 269.315963,
 2013-Jan-25 15:45,*,m, 67.9722,-17.1356, 4.8443336103E+09, -0.9336369, 269.315960,
 2013-Jan-25 15:46,*,m, 68.1769,-16.9781, 4.8443335542E+09, -0.9339232, 269.315956,
 2013-Jan-25 15:47,*,m, 68.3812,-16.8204, 4.8443334982E+09, -0.9342041, 269.315953,
 2013-Jan-25 15:48,*,m, 68.5851,-16.6624, 4.8443334421E+09, -0.9344797, 269.315950,
 2013-Jan-25 15:49,*,m, 68.7887,-16.5042, 4.8443333861E+09, -0.9347499, 269.315947,
 2013-Jan-25 15:50,*,m, 68.9919,-16.3458, 4.8443333300E+09, -0.9350147, 269.315944,
 2013-Jan-25 15:51,*,m, 69.1948,-16.1872, 4.8443332739E+09, -0.9352742, 269.315941,
 2013-Jan-25 15:52,*,m, 69.3973,-16.0283, 4.8443332177E+09, -0.9355282, 269.315938,
 2013-Jan-25 15:53,*,m, 69.5995,-15.8693, 4.8443331616E+09, -0.9357768, 269.315935,
